ONEWEB-0032             
1 45141U 20008L   24006.61170192 -.00000182  00000+0 -55626-3 0  9993
2 45141  87.8894 213.5934 0001515  95.2578 264.8722 13.10378338191409
ONEWEB-0033             
1 45142U 20008M   24006.58571516 -.00000353  00000+0 -10478-2 0  9990
2 45142  87.8888 213.6066 0001767  87.1611 272.9719 13.10371089191319
ONEWEB-0035             
1 45143U 20008N   24006.61820113 -.00000083  00000+0 -27275-3 0  9999
2 45143  87.8897 213.5732 0001612  90.4841 269.6471 13.10377342191046
ONEWEB-0036             
1 45144U 20008P   24006.60844830 -.00000330  00000+0 -98282-3 0  9992
2 45144  87.8897 213.5388 0001321  90.6044 269.5235 13.10371414191476
ONEWEB-0038             
1 45145U 20008Q   24006.94159547 -.00000498  00000+0 -14411-2 0  9990
2 45145  87.8955 198.3851 0001460 117.5323 242.5954 13.11416803193384
ONEWEB-0039             
1 45146U 20008R   24006.58895419 -.00000434  00000+0 -12796-2 0  9990
2 45146  87.8891 213.5572 0000973  94.1858 265.9380 13.10369815191261
ONEWEB-0040             
1 45147U 20008S   24006.58245987 -.00000198  00000+0 -60276-3 0  9994
2 45147  87.8898 213.5498 0001369  87.7947 272.3337 13.10370891190969
ONEWEB-0041             
1 45148U 20008T   24006.58555097  .00000103  00000+0  14331-3 0  9996
2 45148  87.9416 189.3675 0015823 271.0102  88.9234 13.48434728197757
